IRIDIUM 2 [-]           
1 25527U 98066A   23106.29392513  .00035433  00000+0  11351-2 0  9996
2 25527  85.5279 209.3117 0008443 155.5276 204.6375 15.32184638341682
